ONEWEB-0589             
1 54655U 22166P   25174.84982785 -.00000001  00000+0 -32875-4 0  9993
2 54655  87.9262 315.4638 0001004 103.6840 256.4406 13.21827604124208
ONEWEB-0590             
1 54656U 22166Q   25174.79765703  .00000011  00000+0 -36841-5 0  9995
2 54656  87.9252 315.4543 0001869  84.0602 276.0745 13.21824842124182
ONEWEB-0591             
1 54657U 22166R   25174.96180534  .00000070  00000+0  13812-3 0  9993
2 54657  87.9264 315.4413 0001682  97.1539 262.9786 13.21827622124233
ONEWEB-0592             
1 54658U 22166S   25175.11635190 -.00000019  00000+0 -77052-4 0  9997
2 54658  87.9264 315.3625 0001731  95.3016 264.8316 13.21827082124132
ONEWEB-0593             
1 54659U 22166T   25175.36709097 -.00000021  00000+0 -81497-4 0  9994
2 54659  87.9266 315.3516 0001638  98.5493 261.5826 13.21827325124279
ONEWEB-0594             
1 54660U 22166U   25175.61309341 -.00013133  00000+0 -31845-1 0  9999
2 54660  87.9274 315.3158 0001626 106.6949 253.4364 13.21891944124327
ONEWEB-0595             
1 54661U 22166V   25175.36393612  .00000021  00000+0  18929-4 0  9997
2 54661  87.9268 315.3434 0002036  95.9843 264.1523 13.21827239124262
ONEWEB-0596             
1 54662U 22166W   25175.33713608  .00000036  00000+0  54911-4 0  9993
2 54662  87.9269 315.3614 0001843  95.0056 265.1289 13.21826749124261
ONEWEB-0597             
1 54663U 22166X   25175.31822302  .00000146  00000+0  32137-3 0  9991
2 54663  87.9270 315.3685 0001676 102.2163 257.9159 13.21825541124260
ONEWEB-0600             
1 54664U 22166Y   25174.61958609  .00000047  00000+0  83245-4 0  9991
2 54664  87.9248 315.5097 0001766 102.5561 257.5771 13.21827528124140
ONEWEB-0601             
1 54665U 22166Z   25175.36865898 -.00000072  00000+0 -20693-3 0  9999
2 54665  87.9274 315.3696 0001509  98.7968 261.3337 13.21827433124433
ONEWEB-0602             
1 54666U 22166AA  25175.10689350  .00000132  00000+0  28701-3 0  9992
2 54666  87.9269 315.4218 0001697 104.2931 255.8391 13.21827327124249
ONEWEB-0603             
1 54667U 22166AB  25175.33871467  .00000076  00000+0  15230-3 0  9990
2 54667  87.9247 315.3195 0001558 101.6737 258.4572 13.21826515124204
ONEWEB-0604             
1 54668U 22166AC  25174.79620874  .00000028  00000+0  36754-4 0  9996
2 54668  87.9261 315.4445 0001694 104.2956 255.8367 13.21827019124093
ONEWEB-0605             
1 54669U 22166AD  25175.31978569  .00000068  00000+0  13433-3 0  9995
2 54669  87.9263 315.3712 0001210  84.7920 275.3351 13.21826648124232
ONEWEB-0606             
1 54670U 22166AE  25175.11476712  .00000057  00000+0  10638-3 0  9990
2 54670  87.9270 315.4225 0002055  96.6303 263.5065 13.21827449124261
ONEWEB-0607             
1 54671U 22166AF  25175.38442841 -.00000052  00000+0 -15741-3 0  9993
2 54671  87.9264 315.3341 0001777 100.9282 259.2052 13.21827497124270
ONEWEB-0608             
1 54672U 22166AG  25175.61784705  .00000060  00000+0  11343-3 0  9999
2 54672  87.9253 315.2783 0001321 101.7244 258.4038 13.21825355124771
ONEWEB-0610             
1 54673U 22166AH  25175.37181205 -.00000312  00000+0 -78787-3 0  9996
2 54673  87.9268 315.3558 0001439  94.2109 265.9189 13.21825468124185
ONEWEB-0611             
1 54674U 22166AJ  25175.36551135 -.00000026  00000+0 -94161-4 0  9996
2 54674  87.9269 315.3542 0002095  98.6125 261.5246 13.21827094124177
ONEWEB-0612             
1 54675U 22166AK  25175.37813606 -.00000010  00000+0 -55557-4 0  9991
2 54675  87.9266 315.3296 0001637  99.0738 261.0581 13.21827087124165
ONEWEB-0615             
1 54676U 22166AL  25175.35921248 -.00000007  00000+0 -49581-4 0  9998
2 54676  87.9268 315.3596 0001902  99.7711 260.3638 13.21824591124177
ONEWEB-0655             
1 54677U 22166AM  25175.10532615  .00000019  00000+0  15654-4 0  9993
2 54677  87.9267 315.4143 0001792 109.4406 250.6922 13.21823867124132
ONEWEB-0659             
1 54678U 22166AN  25175.34974722  .00000007  00000+0 -15059-4 0  9996
2 54678  87.9265 315.3669 0001961  94.5248 265.6110 13.21827126124259
ONEWEB-0685             
1 54679U 22166AP  25174.67005832  .00000023  00000+0  23982-4 0  9990
2 54679  87.9265 315.4970 0001687 104.8663 255.2658 13.21826868124059
ONEWEB-0712             
1 54680U 22166AQ  25175.57032117  .00000101  00000+0  23164-3 0  9996
2 54680  87.9047 300.0410 0002088 116.8905 243.2439 13.16593254125000
ONEWEB-0714             
1 54681U 22166AR  25174.67636793 -.00000001  00000+0 -33631-4 0  9999
2 54681  87.9266 315.4880 0001708 103.2469 256.8855 13.21824869124172
ONEWEB-0532             
1 55140U 23004A   25175.44991018  .00000009  00000+0 -87942-5 0  9994
2 55140  87.9063  77.0783 0001817  64.2059 295.9260 13.17651559120475
ONEWEB-0533             
1 55141U 23004B   25175.14276532  .00000402  00000+0  10833-2 0  9997
2 55141  87.8883  61.8686 0001647  81.9125 278.2190 13.12442164121099
ONEWEB-0541             
1 55142U 23004C   25175.50303483 -.00000168  00000+0 -50894-3 0  9997
2 55142  87.8841  92.3439 0001926  76.4238 283.7104 13.11418286119060
ONEWEB-0543             
1 55143U 23004D   25175.55822953  .00000036  00000+0  57969-4 0  9994
2 55143  87.9126  46.5881 0001818  92.1415 267.9926 13.18725524122560
ONEWEB-0544             
1 55144U 23004E   25175.55185009 -.00000074  00000+0 -22068-3 0  9994
2 55144  87.9126  46.5790 0002032  86.4803 273.6561 13.18750953122569
ONEWEB-0560             
1 55145U 23004F   25175.54545773 -.00000067  00000+0 -20169-3 0  9994
2 55145  87.9132  46.5534 0002089  85.8560 274.2811 13.18774162122572
ONEWEB-0565             
1 55146U 23004G   25175.53909993  .00001091  00000+0  27296-2 0  9995
2 55146  87.9120  46.6140 0002314  74.2024 285.9363 13.18790318122563
ONEWEB-0567             
1 55147U 23004H   25175.07750530  .00003069  00000+0  77346-2 0  9994
2 55147  87.9126  46.6625 0002095  79.3814 280.7554 13.18803725122503
ONEWEB-0569             
1 55148U 23004J   25175.58285619  .00000255  00000+0  66421-3 0  9999
2 55148  87.8962  31.2621 0002775  88.7729 271.3718 13.13469284123233
ONEWEB-0570             
1 55149U 23004K   25175.59651403  .00000023  00000+0  26324-4 0  9991
2 55149  87.9127  46.5618 0001933  62.2183 297.9144 13.18583909122567
ONEWEB-0571             
1 55150U 23004L   25175.59011454  .00000095  00000+0  20966-3 0  9993
2 55150  87.9131  46.5702 0003125  74.8854 285.2624 13.18608270122570
ONEWEB-0572             
1 55151U 23004M   25175.48027912  .00000061  00000+0  12302-3 0  9996
2 55151  87.9066  77.0799 0002019  73.0369 287.0984 13.17647268120370
ONEWEB-0573             
1 55152U 23004N   25175.35610957  .00000115  00000+0  25874-3 0  9998
2 55152  87.9125  46.6239 0002497  66.4043 293.7351 13.18630603122531
ONEWEB-0588             
1 55153U 23004P   25175.57737255  .00000035  00000+0  56192-4 0  9993
2 55153  87.9124  46.5628 0002008  68.3969 291.7377 13.18654717122569
ONEWEB-0598             
1 55154U 23004Q   25175.48099206 -.00000451  00000+0 -13076-2 0  9997
2 55154  87.8835  92.3859 0002604  78.4698 281.6722 13.11415781119013
ONEWEB-0599             
1 55155U 23004R   25175.44148550  .00000083  00000+0  17954-3 0  9990
2 55155  87.9073  77.0927 0002053  82.0851 278.0513 13.17649569120373
ONEWEB-0614             
1 55156U 23004S   25175.47590490 -.00000273  00000+0 -80568-3 0  9992
2 55156  87.8837  92.3958 0001753  68.0961 292.0353 13.11414454118953
ONEWEB-0616             
1 55157U 23004T   25175.48366869  .00000080  00000+0  17238-3 0  9993
2 55157  87.9065  77.0755 0002154 107.0616 253.0752 13.17651690120594
ONEWEB-0617             
1 55158U 23004U   25175.46404310  .00000239  00000+0  63762-3 0  9995
2 55158  87.8834  92.3786 0001986  66.7816 293.3521 13.11414705118975
ONEWEB-0618             
1 55159U 23004V   25175.39805200  .00085472  00000+0  16015-1 0  9990
2 55159  86.9082 320.1661 0019317 147.8794 212.3601 14.64180472128621
ONEWEB-0619             
1 55160U 23004W   25175.43978343  .00000107  00000+0  24278-3 0  9990
2 55160  87.9073  77.0611 0001436  77.6569 282.4723 13.17647770120485
ONEWEB-0620             
1 55161U 23004X   25175.45895752  .00000374  00000+0  10182-2 0  9999
2 55161  87.8836  92.3998 0002294  68.8453 291.2920 13.11415232118942
ONEWEB-0621             
1 55162U 23004Y   25175.48607929 -.00000537  00000+0 -15501-2 0  9993
2 55162  87.8834  92.3514 0001689  75.3069 284.8246 13.11415608118922
ONEWEB-0622             
1 55163U 23004Z   25175.49116047 -.00000469  00000+0 -13580-2 0  9990
2 55163  87.8838  92.3730 0001939  53.6971 306.4336 13.11417863118911
ONEWEB-0623             
1 55164U 23004AA  25175.43472265  .00000091  00000+0  20166-3 0  9990
2 55164  87.9066  77.1186 0001499  55.4731 304.6542 13.17651418120472
ONEWEB-0624             
1 55165U 23004AB  25174.40239184 -.00000239  00000+0 -69441-3 0  9993
2 55165  87.8887  62.0156 0001782  76.8165 283.3163 13.12940254120999
ONEWEB-0625             
1 55166U 23004AC  25175.19679004  .00000003  00000+0 -25081-4 0  9991
2 55166  87.9068  77.1638 0001926  83.5931 276.5420 13.17647940120430
ONEWEB-0626             
1 55167U 23004AD  25175.18666357  .00000078  00000+0  16894-3 0  9990
2 55167  87.9067  77.1635 0002513  77.4390 282.7022 13.17650882120437
ONEWEB-0627             
1 55168U 23004AE  25175.47860526  .00000034  00000+0  55576-4 0  9990
2 55168  87.9064  77.1081 0001727  60.9447 299.1857 13.17649449120475
ONEWEB-0628             
1 55169U 23004AF  25174.93688268 -.00000324  00000+0 -93582-3 0  9994
2 55169  87.8881  61.8941 0001357  59.4496 300.6767 13.12441621121042
ONEWEB-0629             
1 55170U 23004AG  25175.15038108 -.00000071  00000+0 -21490-3 0  9991
2 55170  87.9079  77.1593 0001516  81.2703 278.8600 13.17650439120436
ONEWEB-0631             
1 55171U 23004AH  25175.03983903  .00000000  00000+0 -31935-4 0  9998
2 55171  87.9137  46.5993 0002185  69.7251 290.4116 13.18679383122476
